{
  "type": "FeatureCollection",
  "features": [
    {
      "type": "Feature",
      "properties": {
        "norad_id": 30445,
        "name": "FENGYUN 1C DEB",
        "group": "fengyun-1c-debris",
        "lat": -5.877669212128914,
        "lon": 116.25844396645947,
        "alt_km": 806.1837676016439,
        "timestamp": "2025-12-11T20:41:15.357337+00:00",
        "meta_object_name": "FENGYUN 1C DEB",
        "meta_object_id": "1999-025AFG",
        "meta_epoch": "2025-12-11T09:53:26.366208",
        "meta_mean_motion": 14.48733623,
        "meta_eccentricity": 0.01060506,
        "meta_inclination": 98.8349,
        "meta_ra_of_asc_node": 296.7053,
        "meta_arg_of_pericenter": 22.2959,
        "meta_mean_anomaly": 338.2794,
        "meta_ephemeris_type": 0,
        "meta_classification_type": "U",
        "meta_norad_cat_id": 30445,
        "meta_element_set_no": 999,
        "meta_rev_at_epoch": 99165,
        "meta_bstar": 0.001378472,
        "meta_mean_motion_dot": 5.533e-05,
        "meta_mean_motion_ddot": 0,
        "tle_line1": "1 30445U 99025AFG 25345.41211072  .00005533  00000+0  13785-2 0  9999",
        "tle_line2": "2 30445  98.8349 296.7053 0106050  22.2959 338.2794 14.48733623991659"
      },
      "geometry": {
        "type": "Point",
        "coordinates": [
          116.25844396645947,
          -5.877669212128914
        ]
      }
    },
    {
      "type": "Feature",
      "properties": {
        "norad_id": 30446,
        "name": "FENGYUN 1C DEB",
        "group": "fengyun-1c-debris",
        "lat": -22.501511585747338,
        "lon": 71.95190264603343,
        "alt_km": 762.0344315968114,
        "timestamp": "2025-12-11T20:41:15.357347+00:00",
        "meta_object_name": "FENGYUN 1C DEB",
        "meta_object_id": "1999-025AFH",
        "meta_epoch": "2025-12-11T04:10:15.475872",
        "meta_mean_motion": 14.4469257,
        "meta_eccentricity": 0.00349177,
        "meta_inclination": 98.6135,
        "meta_ra_of_asc_node": 67.6547,
        "meta_arg_of_pericenter": 102.9484,
        "meta_mean_anomaly": 257.561,
        "meta_ephemeris_type": 0,
        "meta_classification_type": "U",
        "meta_norad_cat_id": 30446,
        "meta_element_set_no": 999,
        "meta_rev_at_epoch": 98154,
        "meta_bstar": 0.002773175,
        "meta_mean_motion_dot": 9.654e-05,
        "meta_mean_motion_ddot": 0,
        "tle_line1": "1 30446U 99025AFH 25345.17379023  .00009654  00000+0  27732-2 0  9999",
        "tle_line2": "2 30446  98.6135  67.6547 0034917 102.9484 257.5610 14.44692570981543"
      },
      "geometry": {
        "type": "Point",
        "coordinates": [
          71.95190264603343,
          -22.501511585747338
        ]
      }
    },
    {
      "type": "Feature",
      "properties": {
        "norad_id": 30447,
        "name": "FENGYUN 1C DEB",
        "group": "fengyun-1c-debris",
        "lat": 58.281513974087915,
        "lon": -167.46214861466478,
        "alt_km": 660.4761655082339,
        "timestamp": "2025-12-11T20:41:15.357357+00:00",
        "meta_object_name": "FENGYUN 1C DEB",
        "meta_object_id": "1999-025AFJ",
        "meta_epoch": "2025-12-11T13:57:31.445280",
        "meta_mean_motion": 14.56547656,
        "meta_eccentricity": 0.00600565,
        "meta_inclination": 98.9724,
        "meta_ra_of_asc_node": 207.0473,
        "meta_arg_of_pericenter": 34.0416,
        "meta_mean_anomaly": 355.8694,
        "meta_ephemeris_type": 0,
        "meta_classification_type": "U",
        "meta_norad_cat_id": 30447,
        "meta_element_set_no": 999,
        "meta_rev_at_epoch": 98079,
        "meta_bstar": 0.0039234233,
        "meta_mean_motion_dot": 0.0001789,
        "meta_mean_motion_ddot": 0,
        "tle_line1": "1 30447U 99025AFJ 25345.58161395  .00017890  00000+0  39234-2 0  9997",
        "tle_line2": "2 30447  98.9724 207.0473 0060056  34.0416 355.8694 14.56547656980799"
      },
      "geometry": {
        "type": "Point",
        "coordinates": [
          -167.46214861466478,
          58.281513974087915
        ]
      }
    },
    {
      "type": "Feature",
      "properties": {
        "norad_id": 30448,
        "name": "FENGYUN 1C DEB",
        "group": "fengyun-1c-debris",
        "lat": -27.566760954517523,
        "lon": -107.21713632018572,
        "alt_km": 792.2642903297856,
        "timestamp": "2025-12-11T20:41:15.357369+00:00",
        "meta_object_name": "FENGYUN 1C DEB",
        "meta_object_id": "1999-025AFK",
        "meta_epoch": "2025-12-11T06:39:53.639424",
        "meta_mean_motion": 14.35110797,
        "meta_eccentricity": 0.00170158,
        "meta_inclination": 98.8306,
        "meta_ra_of_asc_node": 76.8404,
        "meta_arg_of_pericenter": 16.7666,
        "meta_mean_anomaly": 54.1805,
        "meta_ephemeris_type": 0,
        "meta_classification_type": "U",
        "meta_norad_cat_id": 30448,
        "meta_element_set_no": 999,
        "meta_rev_at_epoch": 97317,
        "meta_bstar": 0.003678837,
        "meta_mean_motion_dot": 0.00010486,
        "meta_mean_motion_ddot": 0,
        "tle_line1": "1 30448U 99025AFK 25345.27770416  .00010486  00000+0  36788-2 0  9999",
        "tle_line2": "2 30448  98.8306  76.8404 0017015  16.7666  54.1805 14.35110797973178"
      },
      "geometry": {
        "type": "Point",
        "coordinates": [
          -107.21713632018572,
          -27.566760954517523
        ]
      }
    },
    {
      "type": "Feature",
      "properties": {
        "norad_id": 30450,
        "name": "FENGYUN 1C DEB",
        "group": "fengyun-1c-debris",
        "lat": -68.50345721319194,
        "lon": 158.77057791007462,
        "alt_km": 589.7844164381731,
        "timestamp": "2025-12-11T20:41:15.357379+00:00",
        "meta_object_name": "FENGYUN 1C DEB",
        "meta_object_id": "1999-025AFM",
        "meta_epoch": "2025-12-11T12:03:19.622016",
        "meta_mean_motion": 14.61768896,
        "meta_eccentricity": 0.01890058,
        "meta_inclination": 98.0809,
        "meta_ra_of_asc_node": 359.5646,
        "meta_arg_of_pericenter": 212.2013,
        "meta_mean_anomaly": 304.8183,
        "meta_ephemeris_type": 0,
        "meta_classification_type": "U",
        "meta_norad_cat_id": 30450,
        "meta_element_set_no": 999,
        "meta_rev_at_epoch": 99524,
        "meta_bstar": 0.0010606732,
        "meta_mean_motion_dot": 6.78e-05,
        "meta_mean_motion_ddot": 0,
        "tle_line1": "1 30450U 99025AFM 25345.50231044  .00006780  00000+0  10607-2 0  9991",
        "tle_line2": "2 30450  98.0809 359.5646 0189005 212.2013 304.8183 14.61768896995242"
      },
      "geometry": {
        "type": "Point",
        "coordinates": [
          158.77057791007462,
          -68.50345721319194
        ]
      }
    },
    {
      "type": "Feature",
      "properties": {
        "norad_id": 30452,
        "name": "FENGYUN 1C DEB",
        "group": "fengyun-1c-debris",
        "lat": 60.3100928855478,
        "lon": 107.69209621573269,
        "alt_km": 706.9247823011792,
        "timestamp": "2025-12-11T20:41:15.357388+00:00",
        "meta_object_name": "FENGYUN 1C DEB",
        "meta_object_id": "1999-025AFP",
        "meta_epoch": "2025-12-11T09:13:28.140672",
        "meta_mean_motion": 14.64468284,
        "meta_eccentricity": 0.00498212,
        "meta_inclination": 99.3196,
        "meta_ra_of_asc_node": 123.8914,
        "meta_arg_of_pericenter": 256.6192,
        "meta_mean_anomaly": 168.2919,
        "meta_ephemeris_type": 0,
        "meta_classification_type": "U",
        "meta_norad_cat_id": 30452,
        "meta_element_set_no": 999,
        "meta_rev_at_epoch": 98087,
        "meta_bstar": 0.0086120632,
        "meta_mean_motion_dot": 0.00046686,
        "meta_mean_motion_ddot": 0,
        "tle_line1": "1 30452U 99025AFP 25345.38435348  .00046686  00000+0  86121-2 0  9995",
        "tle_line2": "2 30452  99.3196 123.8914 0049821 256.6192 168.2919 14.64468284980871"
      },
      "geometry": {
        "type": "Point",
        "coordinates": [
          107.69209621573269,
          60.3100928855478
        ]
      }
    },
    {
      "type": "Feature",
      "properties": {
        "norad_id": 30453,
        "name": "FENGYUN 1C DEB",
        "group": "fengyun-1c-debris",
        "lat": -68.83125381876441,
        "lon": -146.04151653331925,
        "alt_km": 739.30695280695,
        "timestamp": "2025-12-11T20:41:15.357398+00:00",
        "meta_object_name": "FENGYUN 1C DEB",
        "meta_object_id": "1999-025AFQ",
        "meta_epoch": "2025-12-11T04:28:20.449920",
        "meta_mean_motion": 14.24737063,
        "meta_eccentricity": 0.01156154,
        "meta_inclination": 98.8128,
        "meta_ra_of_asc_node": 56.8969,
        "meta_arg_of_pericenter": 230.7595,
        "meta_mean_anomaly": 155.9626,
        "meta_ephemeris_type": 0,
        "meta_classification_type": "U",
        "meta_norad_cat_id": 30453,
        "meta_element_set_no": 999,
        "meta_rev_at_epoch": 97212,
        "meta_bstar": 0.0023757753,
        "meta_mean_motion_dot": 5.89e-05,
        "meta_mean_motion_ddot": 0,
        "tle_line1": "1 30453U 99025AFQ 25345.18634780  .00005890  00000+0  23758-2 0  9994",
        "tle_line2": "2 30453  98.8128  56.8969 0115615 230.7595 155.9626 14.24737063972128"
      },
      "geometry": {
        "type": "Point",
        "coordinates": [
          -146.04151653331925,
          -68.83125381876441
        ]
      }
    }
  ]
}